$$SOE
2459580.500000000, A.D. 2022-Jan-01 00:00:00.0000, 4.052860916370531E+08, 8.129764183511968E+07, -5.548606595346639E+07,
2459587.500000000, A.D. 2022-Jan-08 00:00:00.0000, 4.025968448912927E+08, 9.205461538814366E+07, -5.385672375496504E+07,
2459594.500000000, A.D. 2022-Jan-15 00:00:00.0000, 3.996371518108742E+08, 1.027495754350819E+08, -5.219117511864427E+07,
2459601.500000000, A.D. 2022-Jan-22 00:00:00.0000, 3.964079134153003E+08, 1.133750592095016E+08, -5.049039874820621E+07,
2459608.500000000, A.D. 2022-Jan-29 00:00:00.0000, 3.929102665012149E+08, 1.239236055302148E+08, -4.875541074884328E+07,
2459615.500000000, A.D. 2022-Feb-05 00:00:00.0000, 3.891455833651084E+08, 1.343877631398707E+08, -4.698726378197469E+07,
2459622.500000000, A.D. 2022-Feb-12 00:00:00.0000, 3.851154732926288E+08, 1.447600981493118E+08, -4.518704642086667E+07,
2459629.500000000, A.D. 2022-Feb-19 00:00:00.0000, 3.808217844719020E+08, 1.550332029337805E+08, -4.335588239173542E+07,
2459636.500000000, A.D. 2022-Feb-26 00:00:00.0000, 3.762666050049534E+08, 1.651997057348480E+08, -4.149492963960038E+07,
2459643.500000000, A.D. 2022-Mar-05 00:00:00.0000, 3.714522631642743E+08, 1.752522803264382E+08, -3.960537928499916E+07,
2459650.500000000, A.D. 2022-Mar-12 00:00:00.0000, 3.663813271055910E+08, 1.851836556531396E+08, -3.768845449877951E+07,
2459657.500000000, A.D. 2022-Mar-19 00:00:00.0000, 3.610566040986904E+08, 1.949866254417654E+08, -3.574540930106902E+07,
2459664.500000000, A.D. 2022-Mar-26 00:00:00.0000, 3.554811392912855E+08, 2.046540577523963E+08, -3.377752728920558E+07,
2459671.500000000, A.D. 2022-Apr-02 00:00:00.0000, 3.496582140684267E+08, 2.141789043847387E+08, -3.178612030804382E+07,
2459678.500000000, A.D. 2022-Apr-09 00:00:00.0000, 3.435913442768367E+08, 2.235542101156925E+08, -2.977252709026721E+07,
2459685.500000000, A.D. 2022-Apr-16 00:00:00.0000, 3.372842786705366E+08, 2.327731223913651E+08, -2.773811184944768E+07,
2459692.500000000, A.D. 2022-Apr-23 00:00:00.0000, 3.307409963068963E+08, 2.418289025256429E+08, -2.568426262415023E+07,
2459699.500000000, A.D. 2022-Apr-30 00:00:00.0000, 3.239657010235705E+08, 2.507149361322605E+08, -2.361238938855363E+07,
2459706.500000000, A.D. 2022-May-07 00:00:00.0000, 3.169628160680555E+08, 2.594247407895364E+08, -2.152392237652412E+07,
2459713.500000000, A.D. 2022-May-14 00:00:00.0000, 3.097369802777733E+08, 2.679519739440596E+08, -1.942031050309050E+07,
2459720.500000000, A.D. 2022-May-21 00:00:00.0000, 3.022930437869683E+08, 2.762904417814250E+08, -1.730301963957095E+07,
2459727.500000000, A.D. 2022-May-28 00:00:00.0000, 2.946360627923970E+08, 2.844341080769818E+08, -1.517353078172424E+07,
2459734.500000000, A.D. 2022-Jun-04 00:00:00.0000, 2.867712936686673E+08, 2.923771026864482E+08, -1.303333816719142E+07,
2459741.500000000, A.D. 2022-Jun-11 00:00:00.0000, 2.787041865937831E+08, 3.001137296521995E+08, -1.088394736080466E+07,
2459748.500000000, A.D. 2022-Jun-18 00:00:00.0000, 2.704403787414587E+08, 3.076384749134280E+08, -8.726873315854684E+06,
2459755.500000000, A.D. 2022-Jun-25 00:00:00.0000, 2.619856870895516E+08, 3.149460135634391E+08, -6.563638422450587E+06,
2459762.500000000, A.D. 2022-Jul-02 00:00:00.0000, 2.533461010007424E+08, 3.220312165664573E+08, -4.395770566424698E+06,
2459769.500000000, A.D. 2022-Jul-09 00:00:00.0000, 2.445277749904230E+08, 3.288891570904897E+08, -2.224801225988925E+06,
2459776.500000000, A.D. 2022-Jul-16 00:00:00.0000, 2.355370216534734E+08, 3.355151175178360E+08, -5.226351865099370E+04,
2459783.500000000, A.D. 2022-Jul-23 00:00:00.0000, 2.263803025756896E+08, 3.419045971870731E+08, 2.120310003644466E+06,
2459790.500000000, A.D. 2022-Jul-30 00:00:00.0000, 2.170642173354265E+08, 3.480533174947014E+08, 4.291389523786888E+06,
2459797.500000000, A.D. 2022-Aug-06 00:00:00.0000, 2.075954942215836E+08, 3.539572249938508E+08, 6.459449810084388E+06,
2459804.500000000, A.D. 2022-Aug-13 00:00:00.0000, 1.979809818731365E+08, 3.596124952331418E+08, 8.622972042739064E+06,
2459811.500000000, A.D. 2022-Aug-20 00:00:00.0000, 1.882276402988792E+08, 3.650155368244550E+08, 1.078044571355540E+07,
2459818.500000000, A.D. 2022-Aug-27 00:00:00.0000, 1.783425313766260E+08, 3.701629950089089E+08, 1.293037052808021E+07,
2459825.500000000, A.D. 2022-Sep-03 00:00:00.0000, 1.683328091125387E+08, 3.750517546071806E+08, 1.507125827333754E+07,
2459832.500000000, A.D. 2022-Sep-10 00:00:00.0000, 1.582057097829222E+08, 3.796789423752155E+08, 1.720163463989007E+07,
2459839.500000000, A.D. 2022-Sep-17 00:00:00.0000, 1.479685420189179E+08, 3.840419287620332E+08, 1.932004099054688E+07,
2459846.500000000, A.D. 2022-Sep-24 00:00:00.0000, 1.376286769243948E+08, 3.881383290193233E+08, 2.142503606135646E+07,
2459853.500000000, A.D. 2022-Oct-01 00:00:00.0000, 1.271935384960109E+08, 3.919660036438119E+08, 2.351519756663537E+07,
2459860.500000000, A.D. 2022-Oct-08 00:00:00.0000, 1.166705947815042E+08, 3.955230586810383E+08, 2.558912370923439E+07,
2459867.500000000, A.D. 2022-Oct-15 00:00:00.0000, 1.060673488740435E+08, 3.988078470979896E+08, 2.764543477554369E+07,
2459874.500000000, A.D. 2022-Oct-22 00:00:00.0000, 9.539132758849336E+07, 4.018189695464777E+08, 2.968277487378919E+07,
2459881.500000000, A.D. 2022-Oct-29 00:00:00.0000, 8.465007034000452E+07, 4.045552719342817E+08, 3.169981337155226E+07,
2459888.500000000, A.D. 2022-Nov-05 00:00:00.0000, 7.385112035002922E+07, 4.070158425632281E+08, 3.369524606157115E+07,
2459895.500000000, A.D. 2022-Nov-12 00:00:00.0000, 6.300201624137174E+07, 4.092000101163689E+08, 3.566779633707625E+07,
2459902.500000000, A.D. 2022-Nov-19 00:00:00.0000, 5.211028332558343E+07, 4.111073415546541E+08, 3.761621636260253E+07,
2459909.500000000, A.D. 2022-Nov-26 00:00:00.0000, 4.118342486598388E+07, 4.127376395428350E+08, 3.953928818226615E+07,
2459916.500000000, A.D. 2022-Dec-03 00:00:00.0000, 3.022891350246958E+07, 4.140909394115507E+08, 4.143582474823755E+07,
2459923.500000000, A.D. 2022-Dec-10 00:00:00.0000, 1.925418290246953E+07, 4.151675056933308E+08, 4.330467086595726E+07,
2459930.500000000, A.D. 2022-Dec-17 00:00:00.0000, 8.266619679920929E+06, 4.159678282268338E+08, 4.514470405119094E+07,
2459937.500000000, A.D. 2022-Dec-24 00:00:00.0000, -2.726444293277152E+06, 4.164926177830414E+08, 4.695483528311074E+07,
2459944.500000000, A.D. 2022-Dec-31 00:00:00.0000, -1.371773881310792E+07, 4.167428013411904E+08, 4.873400962928551E+07,
2459951.500000000, A.D. 2023-Jan-07 00:00:00.0000, -2.470006137354896E+07, 4.167195179991072E+08, 5.048120681041533E+07,
2459958.500000000, A.D. 2023-Jan-14 00:00:00.0000, -3.566628425786519E+07, 4.164241160384425E+08, 5.219544192670950E+07,
2459965.500000000, A.D. 2023-Jan-21 00:00:00.0000, -4.660936332674377E+07, 4.158581479920177E+08, 5.387576614650333E+07,
2459972.500000000, A.D. 2023-Jan-28 00:00:00.0000, -5.752234483181183E+07, 4.150233635389395E+08, 5.552126700639173E+07,
2459979.500000000, A.D. 2023-Feb-04 00:00:00.0000, -6.839837045911923E+07, 4.139217032826043E+08, 5.713106859222740E+07,
2459986.500000000, A.D. 2023-Feb-11 00:00:00.0000, -7.923068239201543E+07, 4.125552932420639E+08, 5.870433175215286E+07,
2459993.500000000, A.D. 2023-Feb-18 00:00:00.0000, -9.001262845351657E+07, 4.109264392545948E+08, 6.024025428240252E+07,
2460000.500000000, A.D. 2023-Feb-25 00:00:00.0000, -1.007376670644640E+08, 4.090376211487690E+08, 6.173807105103150E+07,
2460007.500000000, A.D. 2023-Mar-04 00:00:00.0000, -1.113993719157809E+08, 4.068914867278957E+08, 6.319705405443290E+07,
2460014.500000000, A.D. 2023-Mar-11 00:00:00.0000, -1.219914363279005E+08, 4.044908455850307E+08, 6.461651240693066E+07,
2460021.500000000, A.D. 2023-Mar-18 00:00:00.0000, -1.325076772529474E+08, 4.018386627201958E+08, 6.599579225808379E+07,
2460028.500000000, A.D. 2023-Mar-25 00:00:00.0000, -1.429420387196690E+08, 3.989380519317958E+08, 6.733427661819509E+07,
2460035.500000000, A.D. 2023-Apr-01 00:00:00.0000, -1.532885943006253E+08, 3.957922693935035E+08, 6.863138508808142E+07,
2460042.500000000, A.D. 2023-Apr-08 00:00:00.0000, -1.635415492222295E+08, 3.924047086585865E+08, 6.988657365240395E+07,
2460049.500000000, A.D. 2023-Apr-15 00:00:00.0000, -1.736952444598693E+08, 3.887788960014339E+08, 7.109933466299236E+07,
2460056.500000000, A.D. 2023-Apr-22 00:00:00.0000, -1.837441610145629E+08, 3.849184830550630E+08, 7.226919659848212E+07,
2460063.500000000, A.D. 2023-Apr-29 00:00:00.0000, -1.936829216479588E+08, 3.808272390080315E+08, 7.339572353612177E+07,
2460070.500000000, A.D. 2023-May-06 00:00:00.0000, -2.035062918493226E+08, 3.765090441591145E+08, 7.447851464701580E+07,
2460077.500000000, A.D. 2023-May-13 00:00:00.0000, -2.132091810211550E+08, 3.719678839528909E+08, 7.551720373525092E+07,
2460084.500000000, A.D. 2023-May-20 00:00:00.0000, -2.227866436583091E+08, 3.672078430185657E+08, 7.651145876243313E+07,
2460091.500000000, A.D. 2023-May-27 00:00:00.0000, -2.322338803364771E+08, 3.622330991940966E+08, 7.746098134018664E+07,
2460098.500000000, A.D. 2023-Jun-03 00:00:00.0000, -2.415462384622049E+08, 3.570479175715465E+08, 7.836550618984127E+07,
2460105.500000000, A.D. 2023-Jun-10 00:00:00.0000, -2.507192127708723E+08, 3.516566445584834E+08, 7.922480056820908E+07,
2460112.500000000, A.D. 2023-Jun-17 00:00:00.0000, -2.597484454942263E+08, 3.460637019028539E+08, 8.003866364851221E+07,
2460119.500000000, A.D. 2023-Jun-24 00:00:00.0000, -2.686297258883919E+08, 3.402735807435212E+08, 8.080692583376822E+07,
2460126.500000000, A.D. 2023-Jul-01 00:00:00.0000, -2.773589888806414E+08, 3.342908365203534E+08, 8.152944804924980E+07,
2460133.500000000, A.D. 2023-Jul-08 00:00:00.0000, -2.859323145212681E+08, 3.281200855720000E+08, 8.220612123721744E+07,
2460140.500000000, A.D. 2023-Jul-15 00:00:00.0000, -2.943459295284349E+08, 3.217660005982239E+08, 8.283686594227651E+07,
2460147.500000000, A.D. 2023-Jul-22 00:00:00.0000, -3.025962074128888E+08, 3.152333039552743E+08, 8.342163158128589E+07,
$$EOE